1 43013U 17073A   26159.82491030  .00000054  00000+0  46431-4 0  9999
2 43013  98.7770  99.3620 0000447  42.4915 317.6295 14.19510272443286
